[{"OBJECT_NAME":"STARLINK-30771","OBJECT_ID":"2023-166V","EPOCH":"2026-03-09T15:27:03.297888","MEAN_MOTION":15.30196951,"ECCENTRICITY":5.45e-5,"INCLINATION":53.159,"RA_OF_ASC_NODE":219.7305,"ARG_OF_PERICENTER":105.8758,"MEAN_ANOMALY":254.2303,"EPHEMERIS_TYPE":0,"CLASSIFICATION_TYPE":"U","NORAD_CAT_ID":58169,"ELEMENT_SET_NO":999,"REV_AT_EPOCH":13317,"BSTAR":0.00013788,"MEAN_MOTION_DOT":3.727e-5,"MEAN_MOTION_DDOT":0},{"OBJECT_NAME":"CZ-4C R\/B","OBJECT_ID":"2024-089B","EPOCH":"2026-03-09T16:45:24.409152","MEAN_MOTION":15.30115456,"ECCENTRICITY":0.00763424,"INCLINATION":97.7122,"RA_OF_ASC_NODE":107.3872,"ARG_OF_PERICENTER":235.0262,"MEAN_ANOMALY":124.3793,"EPHEMERIS_TYPE":0,"CLASSIFICATION_TYPE":"U","NORAD_CAT_ID":59729,"ELEMENT_SET_NO":999,"REV_AT_EPOCH":10143,"BSTAR":0.00030010198,"MEAN_MOTION_DOT":9.476e-5,"MEAN_MOTION_DDOT":0}]
